[{"OBJECT_NAME":"YAOGAN-42 01","OBJECT_ID":"2024-063A","EPOCH":"2026-03-09T23:33:22.802688","MEAN_MOTION":15.23115119,"ECCENTRICITY":0.00025743,"INCLINATION":34.9985,"RA_OF_ASC_NODE":29.746,"ARG_OF_PERICENTER":171.5443,"MEAN_ANOMALY":188.5315,"EPHEMERIS_TYPE":0,"CLASSIFICATION_TYPE":"U","NORAD_CAT_ID":59395,"ELEMENT_SET_NO":999,"REV_AT_EPOCH":10771,"BSTAR":0.00052016126,"MEAN_MOTION_DOT":0.00012558,"MEAN_MOTION_DDOT":0},{"OBJECT_NAME":"OTP-2","OBJECT_ID":"2025-052AB","EPOCH":"2026-03-09T15:22:45.676416","MEAN_MOTION":15.22471318,"ECCENTRICITY":0.0007494,"INCLINATION":97.3983,"RA_OF_ASC_NODE":322.5927,"ARG_OF_PERICENTER":139.5012,"MEAN_ANOMALY":220.6784,"EPHEMERIS_TYPE":0,"CLASSIFICATION_TYPE":"U","NORAD_CAT_ID":63235,"ELEMENT_SET_NO":999,"REV_AT_EPOCH":5471,"BSTAR":0.00047808,"MEAN_MOTION_DOT":0.00011014,"MEAN_MOTION_DDOT":0}]
